[{"OBJECT_NAME":"ONEWEB-0124","OBJECT_ID":"2020-100N","EPOCH":"2026-02-01T04:32:55.588128","MEAN_MOTION":13.12441453,"ECCENTRICITY":0.00017935,"INCLINATION":87.8939,"RA_OF_ASC_NODE":17.678,"ARG_OF_PERICENTER":81.3468,"MEAN_ANOMALY":278.7864,"EPHEMERIS_TYPE":0,"CLASSIFICATION_TYPE":"U","NORAD_CAT_ID":47270,"ELEMENT_SET_NO":999,"REV_AT_EPOCH":24673,"BSTAR":0.00037832911,"MEAN_MOTION_DOT":1.49e-6,"MEAN_MOTION_DDOT":0},{"OBJECT_NAME":"ONEWEB-0125","OBJECT_ID":"2020-100P","EPOCH":"2026-02-01T05:51:00.623808","MEAN_MOTION":13.12442006,"ECCENTRICITY":0.00020182,"INCLINATION":87.8947,"RA_OF_ASC_NODE":17.6348,"ARG_OF_PERICENTER":78.5201,"MEAN_ANOMALY":281.6154,"EPHEMERIS_TYPE":0,"CLASSIFICATION_TYPE":"U","NORAD_CAT_ID":47271,"ELEMENT_SET_NO":999,"REV_AT_EPOCH":24680,"BSTAR":0.0010900367,"MEAN_MOTION_DOT":4.05e-6,"MEAN_MOTION_DDOT":0},{"OBJECT_NAME":"ONEWEB-0126","OBJECT_ID":"2020-100Q","EPOCH":"2026-01-31T23:01:22.269792","MEAN_MOTION":13.12442786,"ECCENTRICITY":0.00018566,"INCLINATION":87.8947,"RA_OF_ASC_NODE":17.7143,"ARG_OF_PERICENTER":89.4003,"MEAN_ANOMALY":270.7338,"EPHEMERIS_TYPE":0,"CLASSIFICATION_TYPE":"U","NORAD_CAT_ID":47272,"ELEMENT_SET_NO":999,"REV_AT_EPOCH":24683,"BSTAR":0.00034913764,"MEAN_MOTION_DOT":1.38e-6,"MEAN_MOTION_DDOT":0},{"OBJECT_NAME":"ONEWEB-0127","OBJECT_ID":"2020-100R","EPOCH":"2026-02-01T05:31:30.365184","MEAN_MOTION":13.1244479,"ECCENTRICITY":0.00018064,"INCLINATION":87.8934,"RA_OF_ASC_NODE":17.6678,"ARG_OF_PERICENTER":90.5195,"MEAN_ANOMALY":269.614,"EPHEMERIS_TYPE":0,"CLASSIFICATION_TYPE":"U","NORAD_CAT_ID":47273,"ELEMENT_SET_NO":999,"REV_AT_EPOCH":24689,"BSTAR":-7.1807462e-5,"MEAN_MOTION_DOT":-1.3e-7,"MEAN_MOTION_DDOT":0},{"OBJECT_NAME":"ONEWEB-0128","OBJECT_ID":"2020-100S","EPOCH":"2026-01-31T22:44:05.251200","MEAN_MOTION":13.1244301,"ECCENTRICITY":0.00014756,"INCLINATION":87.8935,"RA_OF_ASC_NODE":17.7386,"ARG_OF_PERICENTER":85.2403,"MEAN_ANOMALY":274.8894,"EPHEMERIS_TYPE":0,"CLASSIFICATION_TYPE":"U","NORAD_CAT_ID":47274,"ELEMENT_SET_NO":999,"REV_AT_EPOCH":24687,"BSTAR":0.0010560799,"MEAN_MOTION_DOT":3.93e-6,"MEAN_MOTION_DDOT":0},{"OBJECT_NAME":"ONEWEB-0129","OBJECT_ID":"2020-100T","EPOCH":"2026-02-01T05:33:56.007072","MEAN_MOTION":13.12445155,"ECCENTRICITY":0.00022837,"INCLINATION":87.8945,"RA_OF_ASC_NODE":17.6421,"ARG_OF_PERICENTER":116.2704,"MEAN_ANOMALY":243.8659,"EPHEMERIS_TYPE":0,"CLASSIFICATION_TYPE":"U","NORAD_CAT_ID":47275,"ELEMENT_SET_NO":999,"REV_AT_EPOCH":24684,"BSTAR":-6.166413e-6,"MEAN_MOTION_DOT":1.1e-7,"MEAN_MOTION_DDOT":0},{"OBJECT_NAME":"ONEWEB-0130","OBJECT_ID":"2020-100U","EPOCH":"2026-01-31T22:53:49.904448","MEAN_MOTION":13.12441492,"ECCENTRICITY":0.00017225,"INCLINATION":87.8947,"RA_OF_ASC_NODE":17.6912,"ARG_OF_PERICENTER":88.2212,"MEAN_ANOMALY":271.9114,"EPHEMERIS_TYPE":0,"CLASSIFICATION_TYPE":"U","NORAD_CAT_ID":47276,"ELEMENT_SET_NO":999,"REV_AT_EPOCH":24677,"BSTAR":0.00081696834,"MEAN_MOTION_DOT":3.07e-6,"MEAN_MOTION_DDOT":0},{"OBJECT_NAME":"ONEWEB-0131","OBJECT_ID":"2020-100V","EPOCH":"2026-02-01T04:18:19.091232","MEAN_MOTION":13.12443571,"ECCENTRICITY":0.00017509,"INCLINATION":87.8948,"RA_OF_ASC_NODE":17.677,"ARG_OF_PERICENTER":85.9006,"MEAN_ANOMALY":274.2323,"EPHEMERIS_TYPE":0,"CLASSIFICATION_TYPE":"U","NORAD_CAT_ID":47277,"ELEMENT_SET_NO":999,"REV_AT_EPOCH":24684,"BSTAR":0.0014185052,"MEAN_MOTION_DOT":5.23e-6,"MEAN_MOTION_DDOT":0},{"OBJECT_NAME":"ONEWEB-0132","OBJECT_ID":"2020-100W","EPOCH":"2026-02-01T04:59:46.429728","MEAN_MOTION":13.12441365,"ECCENTRICITY":0.00017286,"INCLINATION":87.894,"RA_OF_ASC_NODE":17.6709,"ARG_OF_PERICENTER":85.2027,"MEAN_ANOMALY":274.9299,"EPHEMERIS_TYPE":0,"CLASSIFICATION_TYPE":"U","NORAD_CAT_ID":47278,"ELEMENT_SET_NO":999,"REV_AT_EPOCH":24674,"BSTAR":-0.00086971346,"MEAN_MOTION_DOT":-3.0e-6,"MEAN_MOTION_DDOT":0},{"OBJECT_NAME":"ONEWEB-0133","OBJECT_ID":"2020-100X","EPOCH":"2026-01-31T22:04:50.445984","MEAN_MOTION":13.12443394,"ECCENTRICITY":0.0001657,"INCLINATION":87.8941,"RA_OF_ASC_NODE":17.6903,"ARG_OF_PERICENTER":83.6092,"MEAN_ANOMALY":276.5225,"EPHEMERIS_TYPE":0,"CLASSIFICATION_TYPE":"U","NORAD_CAT_ID":47279,"ELEMENT_SET_NO":999,"REV_AT_EPOCH":24686,"BSTAR":-0.00056422296,"MEAN_MOTION_DOT":-1.9e-6,"MEAN_MOTION_DDOT":0},{"OBJECT_NAME":"ONEWEB-0134","OBJECT_ID":"2020-100Y","EPOCH":"2026-01-31T21:21:07.960608","MEAN_MOTION":13.12441411,"ECCENTRICITY":0.00015818,"INCLINATION":87.8949,"RA_OF_ASC_NODE":17.6932,"ARG_OF_PERICENTER":91.1325,"MEAN_ANOMALY":268.9985,"EPHEMERIS_TYPE":0,"CLASSIFICATION_TYPE":"U","NORAD_CAT_ID":47280,"ELEMENT_SET_NO":999,"REV_AT_EPOCH":24683,"BSTAR":-0.00048284301,"MEAN_MOTION_DOT":-1.61e-6,"MEAN_MOTION_DDOT":0},{"OBJECT_NAME":"ONEWEB-0135","OBJECT_ID":"2020-100Z","EPOCH":"2026-02-01T05:48:34.791840","MEAN_MOTION":13.12444661,"ECCENTRICITY":0.00014692,"INCLINATION":87.8942,"RA_OF_ASC_NODE":17.6616,"ARG_OF_PERICENTER":90.5285,"MEAN_ANOMALY":269.6012,"EPHEMERIS_TYPE":0,"CLASSIFICATION_TYPE":"U","NORAD_CAT_ID":47281,"ELEMENT_SET_NO":999,"REV_AT_EPOCH":24690,"BSTAR":0.00093709184,"MEAN_MOTION_DOT":3.5e-6,"MEAN_MOTION_DDOT":0},{"OBJECT_NAME":"ONEWEB-0136","OBJECT_ID":"2020-100AA","EPOCH":"2026-01-31T22:56:17.098944","MEAN_MOTION":13.1244323,"ECCENTRICITY":0.0001529,"INCLINATION":87.8948,"RA_OF_ASC_NODE":17.6893,"ARG_OF_PERICENTER":97.0413,"MEAN_ANOMALY":263.089,"EPHEMERIS_TYPE":0,"CLASSIFICATION_TYPE":"U","NORAD_CAT_ID":47282,"ELEMENT_SET_NO":999,"REV_AT_EPOCH":24679,"BSTAR":0.00065711527,"MEAN_MOTION_DOT":2.49e-6,"MEAN_MOTION_DDOT":0},{"OBJECT_NAME":"ONEWEB-0137","OBJECT_ID":"2020-100AB","EPOCH":"2026-02-01T05:14:24.425664","MEAN_MOTION":13.12442872,"ECCENTRICITY":0.00019409,"INCLINATION":87.8946,"RA_OF_ASC_NODE":17.6424,"ARG_OF_PERICENTER":84.8464,"MEAN_ANOMALY":275.2886,"EPHEMERIS_TYPE":0,"CLASSIFICATION_TYPE":"U","NORAD_CAT_ID":47283,"ELEMENT_SET_NO":999,"REV_AT_EPOCH":24673,"BSTAR":-0.00080709589,"MEAN_MOTION_DOT":-2.78e-6,"MEAN_MOTION_DDOT":0},{"OBJECT_NAME":"ONEWEB-0138","OBJECT_ID":"2020-100AC","EPOCH":"2026-02-01T04:42:41.310144","MEAN_MOTION":13.1244097,"ECCENTRICITY":0.00017056,"INCLINATION":87.8949,"RA_OF_ASC_NODE":17.656,"ARG_OF_PERICENTER":92.1652,"MEAN_ANOMALY":267.9672,"EPHEMERIS_TYPE":0,"CLASSIFICATION_TYPE":"U","NORAD_CAT_ID":47284,"ELEMENT_SET_NO":999,"REV_AT_EPOCH":24681,"BSTAR":4.58772e-5,"MEAN_MOTION_DOT":2.9e-7,"MEAN_MOTION_DDOT":0},{"OBJECT_NAME":"ONEWEB-0139","OBJECT_ID":"2020-100AD","EPOCH":"2026-02-01T00:12:06.598080","MEAN_MOTION":13.12443713,"ECCENTRICITY":0.00018071,"INCLINATION":87.8944,"RA_OF_ASC_NODE":17.6813,"ARG_OF_PERICENTER":87.1116,"MEAN_ANOMALY":273.0219,"EPHEMERIS_TYPE":0,"CLASSIFICATION_TYPE":"U","NORAD_CAT_ID":47285,"ELEMENT_SET_NO":999,"REV_AT_EPOCH":24686,"BSTAR":0.00046200557,"MEAN_MOTION_DOT":1.79e-6,"MEAN_MOTION_DDOT":0},{"OBJECT_NAME":"ONEWEB-0140","OBJECT_ID":"2020-100AE","EPOCH":"2026-02-01T04:35:23.085888","MEAN_MOTION":13.12441816,"ECCENTRICITY":0.00016736,"INCLINATION":87.8947,"RA_OF_ASC_NODE":17.633,"ARG_OF_PERICENTER":82.1193,"MEAN_ANOMALY":278.0125,"EPHEMERIS_TYPE":0,"CLASSIFICATION_TYPE":"U","NORAD_CAT_ID":47286,"ELEMENT_SET_NO":999,"REV_AT_EPOCH":24685,"BSTAR":0.00060898362,"MEAN_MOTION_DOT":2.32e-6,"MEAN_MOTION_DDOT":0}]
