ONEWEB-0124             
1 47270U 20100N   26032.18953227  .00000149  00000+0  37833-3 0  9993
2 47270  87.8939  17.6780 0001793  81.3468 278.7864 13.12441453246737
ONEWEB-0125             
1 47271U 20100P   26032.24375722  .00000405  00000+0  10900-2 0  9999
2 47271  87.8947  17.6348 0002018  78.5201 281.6154 13.12442006246809
ONEWEB-0126             
1 47272U 20100Q   26031.95928553  .00000138  00000+0  34914-3 0  9998
2 47272  87.8947  17.7143 0001856  89.4003 270.7338 13.12442786246835
ONEWEB-0127             
1 47273U 20100R   26032.23021256 -.00000013  00000+0 -71807-4 0  9992
2 47273  87.8934  17.6678 0001806  90.5195 269.6140 13.12444790246895
ONEWEB-0128             
1 47274U 20100S   26031.94728300  .00000393  00000+0  10561-2 0  9991
2 47274  87.8935  17.7386 0001475  85.2403 274.8894 13.12443010246875
ONEWEB-0129             
1 47275U 20100T   26032.23189823  .00000011  00000+0 -61664-5 0  9997
2 47275  87.8945  17.6421 0002283 116.2704 243.8659 13.12445155246847
ONEWEB-0130             
1 47276U 20100U   26031.95404982  .00000307  00000+0  81697-3 0  9995
2 47276  87.8947  17.6912 0001722  88.2212 271.9114 13.12441492246774
ONEWEB-0131             
1 47277U 20100V   26032.17938763  .00000523  00000+0  14185-2 0  9997
2 47277  87.8948  17.6770 0001750  85.9006 274.2323 13.12443571246840
ONEWEB-0132             
1 47278U 20100W   26032.20817627 -.00000300  00000+0 -86971-3 0  9995
2 47278  87.8940  17.6709 0001728  85.2027 274.9299 13.12441365246743
ONEWEB-0133             
1 47279U 20100X   26031.92002831 -.00000190  00000+0 -56422-3 0  9992
2 47279  87.8941  17.6903 0001657  83.6092 276.5225 13.12443394246860
ONEWEB-0134             
1 47280U 20100Y   26031.88967547 -.00000161  00000+0 -48284-3 0  9998
2 47280  87.8949  17.6932 0001581  91.1325 268.9985 13.12441411246834
ONEWEB-0135             
1 47281U 20100Z   26032.24206935  .00000350  00000+0  93709-3 0  9997
2 47281  87.8942  17.6616 0001469  90.5285 269.6012 13.12444661246907
ONEWEB-0136             
1 47282U 20100AA  26031.95575346  .00000249  00000+0  65712-3 0  9990
2 47282  87.8948  17.6893 0001529  97.0413 263.0890 13.12443230246793
ONEWEB-0137             
1 47283U 20100AB  26032.21833826 -.00000278  00000+0 -80710-3 0  9990
2 47283  87.8946  17.6424 0001940  84.8464 275.2886 13.12442872246734
ONEWEB-0138             
1 47284U 20100AC  26032.19631146  .00000029  00000+0  45877-4 0  9997
2 47284  87.8949  17.6560 0001705  92.1652 267.9672 13.12440970246816
ONEWEB-0139             
1 47285U 20100AD  26032.00840970  .00000179  00000+0  46201-3 0  9992
2 47285  87.8944  17.6813 0001807  87.1116 273.0219 13.12443713246863
ONEWEB-0140             
1 47286U 20100AE  26032.19123942  .00000232  00000+0  60898-3 0  9994
2 47286  87.8947  17.6330 0001673  82.1193 278.0125 13.12441816246854
